CCSDS_OMM_VERS = 2.0
CREATION_DATE  = 
ORIGINATOR     = 

OBJECT_NAME    = STARLINK-36839
OBJECT_ID      = 2026-044AA
CENTER_NAME    = EARTH
REF_FRAME      = TEME
TIME_SYSTEM    = UTC
MEAN_ELEMENT_THEORY = SGP/SGP4

EPOCH          = 2026-03-30T03:38:42.303264
MEAN_MOTION    = 15.73676565
ECCENTRICITY   = .0000452
INCLINATION    = 97.2843
RA_OF_ASC_NODE = 50.3365
ARG_OF_PERICENTER = 86.3688
MEAN_ANOMALY   = 273.7628

EPHEMERIS_TYPE = 0
CLASSIFICATION_TYPE = U
NORAD_CAT_ID   = 68125
ELEMENT_SET_NO = 999
REV_AT_EPOCH   = 470
BSTAR          = -.68416E-2
MEAN_MOTION_DOT = -.864154E-2
MEAN_MOTION_DDOT = 0

CCSDS_OMM_VERS = 2.0
CREATION_DATE  = 
ORIGINATOR     = 

OBJECT_NAME    = ECHOSTAR 25
OBJECT_ID      = 2026-045A
CENTER_NAME    = EARTH
REF_FRAME      = TEME
TIME_SYSTEM    = UTC
MEAN_ELEMENT_THEORY = SGP/SGP4

EPOCH          = 2026-03-30T05:25:21.468288
MEAN_MOTION    = 1.00272911
ECCENTRICITY   = .0002462
INCLINATION    = 0.0499
RA_OF_ASC_NODE = 282.2161
ARG_OF_PERICENTER = 110.8350
MEAN_ANOMALY   = 106.9976

EPHEMERIS_TYPE = 0
CLASSIFICATION_TYPE = U
NORAD_CAT_ID   = 68126
ELEMENT_SET_NO = 999
REV_AT_EPOCH   = 20
BSTAR          = 0
MEAN_MOTION_DOT = .41E-6
MEAN_MOTION_DDOT = 0

CCSDS_OMM_VERS = 2.0
CREATION_DATE  = 
ORIGINATOR     = 

OBJECT_NAME    = ICOR SV
OBJECT_ID      = 2026-046A
CENTER_NAME    = EARTH
REF_FRAME      = TEME
TIME_SYSTEM    = UTC
MEAN_ELEMENT_THEORY = SGP/SGP4

EPOCH          = 2026-03-30T01:56:53.239200
MEAN_MOTION    = 15.95276688
ECCENTRICITY   = .0101004
INCLINATION    = 123.0765
RA_OF_ASC_NODE = 298.7803
ARG_OF_PERICENTER = 224.1446
MEAN_ANOMALY   = 135.1534

EPHEMERIS_TYPE = 0
CLASSIFICATION_TYPE = U
NORAD_CAT_ID   = 68127
ELEMENT_SET_NO = 999
REV_AT_EPOCH   = 284
BSTAR          = .70404E-3
MEAN_MOTION_DOT = .482223E-2
MEAN_MOTION_DDOT = .12137E-4

CCSDS_OMM_VERS = 2.0
CREATION_DATE  = 
ORIGINATOR     = 

OBJECT_NAME    = FIREFLY ALPHA R/B
OBJECT_ID      = 2026-046B
CENTER_NAME    = EARTH
REF_FRAME      = TEME
TIME_SYSTEM    = UTC
MEAN_ELEMENT_THEORY = SGP/SGP4

EPOCH          = 2026-03-30T04:28:50.968992
MEAN_MOTION    = 15.57366407
ECCENTRICITY   = .0016428
INCLINATION    = 123.0937
RA_OF_ASC_NODE = 295.4597
ARG_OF_PERICENTER = 21.1333
MEAN_ANOMALY   = 339.0404

EPHEMERIS_TYPE = 0
CLASSIFICATION_TYPE = U
NORAD_CAT_ID   = 68128
ELEMENT_SET_NO = 999
REV_AT_EPOCH   = 283
BSTAR          = .6013E-3
MEAN_MOTION_DOT = .44776E-3
MEAN_MOTION_DDOT = 0

CCSDS_OMM_VERS = 2.0
CREATION_DATE  = 
ORIGINATOR     = 

OBJECT_NAME    = GUOWANG GROUP 20 OBJECT A
OBJECT_ID      = 2026-047A
CENTER_NAME    = EARTH
REF_FRAME      = TEME
TIME_SYSTEM    = UTC
MEAN_ELEMENT_THEORY = SGP/SGP4

EPOCH          = 2026-03-27T14:49:26.211072
MEAN_MOTION    = 13.95400488
ECCENTRICITY   = .0001326
INCLINATION    = 50.0073
RA_OF_ASC_NODE = 357.5704
ARG_OF_PERICENTER = 229.8596
MEAN_ANOMALY   = 130.2189

EPHEMERIS_TYPE = 0
CLASSIFICATION_TYPE = U
NORAD_CAT_ID   = 68129
ELEMENT_SET_NO = 999
REV_AT_EPOCH   = 208
BSTAR          = .34814E-4
MEAN_MOTION_DOT = -.101E-5
MEAN_MOTION_DDOT = 0

CCSDS_OMM_VERS = 2.0
CREATION_DATE  = 
ORIGINATOR     = 

OBJECT_NAME    = GUOWANG GROUP 20 OBJECT B
OBJECT_ID      = 2026-047B
CENTER_NAME    = EARTH
REF_FRAME      = TEME
TIME_SYSTEM    = UTC
MEAN_ELEMENT_THEORY = SGP/SGP4

EPOCH          = 2026-03-26T18:09:03.081024
MEAN_MOTION    = 13.96591410
ECCENTRICITY   = .0000428
INCLINATION    = 50.0066
RA_OF_ASC_NODE = 1.0171
ARG_OF_PERICENTER = 307.3036
MEAN_ANOMALY   = 52.7826

EPHEMERIS_TYPE = 0
CLASSIFICATION_TYPE = U
NORAD_CAT_ID   = 68130
ELEMENT_SET_NO = 999
REV_AT_EPOCH   = 195
BSTAR          = .55036E-4
MEAN_MOTION_DOT = -.72E-6
MEAN_MOTION_DDOT = 0

CCSDS_OMM_VERS = 2.0
CREATION_DATE  = 
ORIGINATOR     = 

OBJECT_NAME    = GUOWANG GROUP 20 OBJECT C
OBJECT_ID      = 2026-047C
CENTER_NAME    = EARTH
REF_FRAME      = TEME
TIME_SYSTEM    = UTC
MEAN_ELEMENT_THEORY = SGP/SGP4

EPOCH          = 2026-03-26T19:49:39.748800
MEAN_MOTION    = 13.96862690
ECCENTRICITY   = .0000048
INCLINATION    = 49.9996
RA_OF_ASC_NODE = 0.7054
ARG_OF_PERICENTER = 49.5998
MEAN_ANOMALY   = 310.4907

EPHEMERIS_TYPE = 0
CLASSIFICATION_TYPE = U
NORAD_CAT_ID   = 68131
ELEMENT_SET_NO = 999
REV_AT_EPOCH   = 197
BSTAR          = .2709E-4
MEAN_MOTION_DOT = -.111E-5
MEAN_MOTION_DDOT = 0

CCSDS_OMM_VERS = 2.0
CREATION_DATE  = 
ORIGINATOR     = 

OBJECT_NAME    = GUOWANG GROUP 20 OBJECT D
OBJECT_ID      = 2026-047D
CENTER_NAME    = EARTH
REF_FRAME      = TEME
TIME_SYSTEM    = UTC
MEAN_ELEMENT_THEORY = SGP/SGP4

EPOCH          = 2026-03-24T19:43:51.842784
MEAN_MOTION    = 14.00513037
ECCENTRICITY   = .00024162
INCLINATION    = 50.0048
RA_OF_ASC_NODE = 8.7665
ARG_OF_PERICENTER = 7.3102
MEAN_ANOMALY   = 352.7836

EPHEMERIS_TYPE = 0
CLASSIFICATION_TYPE = U
NORAD_CAT_ID   = 68132
ELEMENT_SET_NO = 999
REV_AT_EPOCH   = 168
BSTAR          = .32408862E-4
MEAN_MOTION_DOT = -.102E-5
MEAN_MOTION_DDOT = 0

CCSDS_OMM_VERS = 2.0
CREATION_DATE  = 
ORIGINATOR     = 

OBJECT_NAME    = GUOWANG GROUP 20 OBJECT E
OBJECT_ID      = 2026-047E
CENTER_NAME    = EARTH
REF_FRAME      = TEME
TIME_SYSTEM    = UTC
MEAN_ELEMENT_THEORY = SGP/SGP4

EPOCH          = 2026-03-24T07:42:54.851616
MEAN_MOTION    = 14.01339008
ECCENTRICITY   = .00032302
INCLINATION    = 49.9979
RA_OF_ASC_NODE = 10.8404
ARG_OF_PERICENTER = 188.5214
MEAN_ANOMALY   = 171.5635

EPHEMERIS_TYPE = 0
CLASSIFICATION_TYPE = U
NORAD_CAT_ID   = 68133
ELEMENT_SET_NO = 999
REV_AT_EPOCH   = 162
BSTAR          = .15966081E-4
MEAN_MOTION_DOT = -.126E-5
MEAN_MOTION_DDOT = 0

CCSDS_OMM_VERS = 2.0
CREATION_DATE  = 
ORIGINATOR     = 

OBJECT_NAME    = GUOWANG GROUP 20 OBJECT F
OBJECT_ID      = 2026-047F
CENTER_NAME    = EARTH
REF_FRAME      = TEME
TIME_SYSTEM    = UTC
MEAN_ELEMENT_THEORY = SGP/SGP4

EPOCH          = 2026-03-24T02:31:27.101856
MEAN_MOTION    = 14.01903676
ECCENTRICITY   = .00004752
INCLINATION    = 50.0123
RA_OF_ASC_NODE = 11.6502
ARG_OF_PERICENTER = 222.9253
MEAN_ANOMALY   = 137.1614

EPHEMERIS_TYPE = 0
CLASSIFICATION_TYPE = U
NORAD_CAT_ID   = 68134
ELEMENT_SET_NO = 999
REV_AT_EPOCH   = 158
BSTAR          = .77668349E-4
MEAN_MOTION_DOT = -.32E-6
MEAN_MOTION_DDOT = 0

CCSDS_OMM_VERS = 2.0
CREATION_DATE  = 
ORIGINATOR     = 

OBJECT_NAME    = GUOWANG GROUP 20 OBJECT G
OBJECT_ID      = 2026-047G
CENTER_NAME    = EARTH
REF_FRAME      = TEME
TIME_SYSTEM    = UTC
MEAN_ELEMENT_THEORY = SGP/SGP4

EPOCH          = 2026-03-26T17:51:49.939200
MEAN_MOTION    = 14.01583953
ECCENTRICITY   = .00048065
INCLINATION    = 50.0409
RA_OF_ASC_NODE = 0.8903
ARG_OF_PERICENTER = 213.0056
MEAN_ANOMALY   = 147.0548

EPHEMERIS_TYPE = 0
CLASSIFICATION_TYPE = U
NORAD_CAT_ID   = 68135
ELEMENT_SET_NO = 999
REV_AT_EPOCH   = 196
BSTAR          = .11069373E-3
MEAN_MOTION_DOT = .18E-6
MEAN_MOTION_DDOT = 0

CCSDS_OMM_VERS = 2.0
CREATION_DATE  = 
ORIGINATOR     = 

OBJECT_NAME    = GUOWANG GROUP 20 OBJECT H
OBJECT_ID      = 2026-047H
CENTER_NAME    = EARTH
REF_FRAME      = TEME
TIME_SYSTEM    = UTC
MEAN_ELEMENT_THEORY = SGP/SGP4

EPOCH          = 2026-03-25T00:46:09.563232
MEAN_MOTION    = 14.01074305
ECCENTRICITY   = .0014532
INCLINATION    = 49.9530
RA_OF_ASC_NODE = 7.8688
ARG_OF_PERICENTER = 103.7924
MEAN_ANOMALY   = 256.4596

EPHEMERIS_TYPE = 0
CLASSIFICATION_TYPE = U
NORAD_CAT_ID   = 68136
ELEMENT_SET_NO = 999
REV_AT_EPOCH   = 171
BSTAR          = .33918E-4
MEAN_MOTION_DOT = -.99E-6
MEAN_MOTION_DDOT = 0

